HAWK-5A                 
1 52757U 22057AB  26177.71787779  .00018631  00000+0  31415-3 0  9993
2 52757  97.6611 337.1833 0004861  47.3838 312.7823 15.51715601227827
HAWK-6B                 
1 55324U 23011A   26177.69138983  .00004480  00000+0  19457-3 0  9990
2 55324  40.4995 296.6350 0001343 102.1828 257.9132 15.23012495189296
HAWK-6C                 
1 55326U 23011C   26177.69075794  .00004344  00000+0  18895-3 0  9996
2 55326  40.4978 293.4764 0001988  77.7700 282.3332 15.23005777189305
HAWK-6A                 
1 55327U 23011D   26177.62522197  .00004547  00000+0  19735-3 0  9993
2 55327  40.4993 295.4841 0001592  70.9092 289.1890 15.23009944189293
HAWK-7A                 
1 56191U 23054P   26177.41320625  .00006168  00000+0  23225-3 0  9999
2 56191  97.2698  64.5160 0003572  36.2318 323.9163 15.27451057178434
HAWK-7B                 
1 56193U 23054R   26177.41313368  .00006275  00000+0  23624-3 0  9999
2 56193  97.2725  62.7833 0003183  52.0980 308.0547 15.27449541178438
HAWK-7C                 
1 56200U 23054Y   26177.47852751  .00005681  00000+0  21415-3 0  9994
2 56200  97.2702  63.6128 0002996  42.0981 318.0488 15.27449628178442
